[{"OBJECT_NAME":"HINODE (SOLAR-B)","OBJECT_ID":"2006-041A","EPOCH":"2026-03-09T23:31:46.832160","MEAN_MOTION":14.68474529,"ECCENTRICITY":0.00163234,"INCLINATION":98.0624,"RA_OF_ASC_NODE":86.5729,"ARG_OF_PERICENTER":240.6819,"MEAN_ANOMALY":119.2756,"EPHEMERIS_TYPE":0,"CLASSIFICATION_TYPE":"U","NORAD_CAT_ID":29479,"ELEMENT_SET_NO":999,"REV_AT_EPOCH":4031,"BSTAR":0.00015629545,"MEAN_MOTION_DOT":8.58e-6,"MEAN_MOTION_DDOT":0},{"OBJECT_NAME":"COSMOS 2251 DEB","OBJECT_ID":"1993-036ASG","EPOCH":"2026-03-07T11:03:06.082848","MEAN_MOTION":14.67333372,"ECCENTRICITY":0.00349297,"INCLINATION":74.0117,"RA_OF_ASC_NODE":240.1137,"ARG_OF_PERICENTER":345.4358,"MEAN_ANOMALY":14.5801,"EPHEMERIS_TYPE":0,"CLASSIFICATION_TYPE":"U","NORAD_CAT_ID":35786,"ELEMENT_SET_NO":999,"REV_AT_EPOCH":74650,"BSTAR":0.001352784,"MEAN_MOTION_DOT":7.685e-5,"MEAN_MOTION_DDOT":0}]
